IRIDIUM 159             
1 43578U 18061K   25157.57252914 -.00000038  00000+0 -20748-4 0  9995
2 43578  86.3997 213.6316 0001985  95.1159 265.0263 14.34216920359548
IRIDIUM 180             
1 43922U 19002A   25157.36271941  .00000002  00000+0 -65109-5 0  9993
2 43922  86.3982 150.7021 0002209  91.0719 269.0730 14.34217548335124
IRIDIUM 176             
1 43923U 19002B   25157.43350656  .00000368  00000+0  54511-4 0  9991
2 43923  86.6101 150.6669 0003065  98.8076 261.3488 14.72249462343968
IRIDIUM 168             
1 43924U 19002C   25157.42614437  .00000004  00000+0 -57891-5 0  9994
2 43924  86.3983 150.7422 0002232  88.4967 271.6484 14.34217698335113
IRIDIUM 173             
1 43925U 19002D   25157.41346005  .00000012  00000+0 -27323-5 0  9993
2 43925  86.3979 150.6519 0002304  92.7248 267.4211 14.34217547335096
IRIDIUM 169             
1 43926U 19002E   25157.51197116  .00000315  00000+0  96437-4 0  9998
2 43926  86.4252 182.1890 0003769  98.4927 261.6699 14.38608582336215
IRIDIUM 172             
1 43927U 19002F   25157.33734668 -.00000015  00000+0 -12260-4 0  9999
2 43927  86.3980 150.6904 0001995  94.7677 265.3746 14.34217181335095
IRIDIUM 175             
1 43928U 19002G   25157.56441622  .00000887  00000+0  13676-3 0  9996
2 43928  86.1495 103.7321 0003244  74.2943 285.8631 14.72247804343978
